satname,norad_id,inclination_deg,eccentricity,mean_motion_rev_per_day,perigee_km,apogee_km,l1,l2
STARLINK-1316,45415,53.1558,0.0006233,15.38369224,446.6746848701123,455.1878013419673,1 45415U 20019BH  26155.12154145  .00061014  00000+0  15859-2 0  9994,2 45415  53.1558  85.3681 0006233  68.6199 291.5470 15.38369224343261
STARLINK-1286,45417,53.0458,0.0001233,15.63650931,376.2885281122899,377.9543748464248,1 45417U 20019BK  26155.03163252  .00059059  00000+0  62387-3 0  9990,2 45417  53.0458  73.0313 0001233 174.2110 185.8918 15.63650931343661
STARLINK-1308,45419,53.0459,0.0007627,15.65431053,366.85101277923604,377.1476707549673,1 45419U 20019BM  26155.12631248  .00054498  00000+0  53662-3 0  9995,2 45419  53.0459  92.0227 0007627  36.9005 323.2534 15.65431053343159
STARLINK-1329,45531,53.0422,0.0003658,15.72502234,349.28647923117205,354.21006329562806,1 45531U 20025A   26153.80029213  .00068128  00000+0  50033-3 0  9997,2 45531  53.0422  22.5236 0003658 126.4333 233.7022 15.72502234338790
STARLINK-1338,45532,53.0449,0.0003713,15.67209125,364.38838285035763,369.3972419890606,1 45532U 20025B   26152.91554605  .00056192  00000+0  51546-3 0  9995,2 45532  53.0449  33.3278 0003713  89.0725 271.0716 15.67209125338564
STARLINK-1350,45535,53.0726,0.0001461,15.38183879,450.4820086636555,452.47762269719715,1 45535U 20025E   26155.71896309  .00012345  00000+0  33323-3 0  9994,2 45535  53.0726 343.7535 0001461  79.4402 280.6766 15.38183879339547
STARLINK-1362,45538,53.1567,0.0004225,15.36930435,452.30549319182046,458.07965668264205,1 45538U 20025H   26155.94050525 -.00074064  00000+0 -20298-2 0  9998,2 45538  53.1567  53.8499 0004225 141.8166 218.3137 15.36930435338561
STARLINK-1368,45540,53.1571,0.0004333,15.37077103,451.7971834969612,457.71857019723666,1 45540U 20025K   26155.04349157  .00058170  00000+0  15781-2 0  9993,2 45540  53.1571  58.4352 0004333 112.9510 247.1952 15.37077103338414
STARLINK-1371,45542,53.0441,0.0005072,15.61243131,380.6353315859724,387.4949094170088,1 45542U 20025M   26154.00002315  .00107926  00000+0  12388-2 0  9996,2 45542  53.0441  37.4618 0005072 113.4969 151.4310 15.61243131  5901
STARLINK-1372,45543,53.1569,0.0003502,15.3757903,450.87841767701957,455.6631356838052,1 45543U 20025N   26155.00336289  .00056053  00000+0  14972-2 0  9993,2 45543  53.1569  58.1375 0003502 104.0866 256.0527 15.37579030337512
STARLINK-1373,45544,53.0461,0.0003146,15.69162897,359.1725800355034,363.41302926859134,1 45544U 20025P   26153.83297628  .00055472  00000+0  47003-3 0  9992,2 45544  53.0461  34.1222 0003146  69.0124 291.1229 15.69162897338636
STARLINK-1327,45555,53.042,0.0004393,15.66660134,365.50467114086496,371.4322386935564,1 45555U 20025AA  26153.80335105  .00048442  00000+0  45541-3 0  9998,2 45555  53.0420  11.3370 0004393  66.4276 293.7200 15.66660134338943
STARLINK-1356,45564,53.0432,4.81e-05,15.64803064,373.4804354754169,374.1299723154325,1 45564U 20025AK  26155.00002315 -.00005380  00000+0 -48709-4 0  9992,2 45564  53.0432  18.5472 0000481  78.2154 101.1106 15.64803064  5945
STARLINK-1357,45565,53.0454,0.0005516,15.69059534,357.87114540087896,365.30641087932327,1 45565U 20025AL  26155.64863318  .00060620  00000+0  51481-3 0  9997,2 45565  53.0454 332.1956 0005516 111.0085 249.1522 15.69059534339669
STARLINK-1361,45567,53.0437,9.71e-05,15.62052269,381.0733366409777,382.3861027579442,1 45567U 20025AN  26155.91679386  .00107838  00000+0  12002-2 0  9997,2 45567  53.0437  12.2839 0000971 241.6839 118.4076 15.62052269339129
STARLINK-1366,45569,53.0285,0.0012235,16.16853713,220.02545924645892,236.19094125146876,1 45569U 20025AQ  26155.86183370  .01283454  12566-2  82975-3 0  9996,2 45569  53.0285 314.8042 0012235 301.9692  58.0154 16.16853713339907
STARLINK-1376,45570,53.1571,0.0004361,15.37964596,449.1502991288271,455.10765711494514,1 45570U 20025AR  26155.50088228  .00050208  00000+0  13264-2 0  9994,2 45570  53.1571  32.2087 0004361 100.7082 259.4414 15.37964596338827
STARLINK-1320,45572,53.0419,0.0007689,15.85894578,308.6615710099604,318.9524425035497,1 45572U 20025AT  26156.00002315  .00143715  00000+0  56666-3 0  9995,2 45572  53.0419 269.8414 0007689 325.8941 178.6524 15.85894578  6024
STARLINK-1321,45573,53.0431,0.0002319,15.62981282,377.48381909600084,380.61780280271796,1 45573U 20025AU  26155.73625367  .00102639  00000+0  11027-2 0  9994,2 45573  53.0431 357.0858 0002319 135.4889 224.6311 15.62981282339010
STARLINK-1331,45578,53.0467,0.0003132,15.62782357,377.5076784174398,381.7407400388993,1 45578U 20025AZ  26155.88713362  .00104835  00000+0  11346-2 0  9992,2 45578  53.0467   3.2433 0003132 101.2912 258.8454 15.62782357339250
STARLINK-1333,45580,53.1566,0.0002642,15.34765443,459.8102190458476,463.42434520852294,1 45580U 20025BB  26153.84888815  .00045023  00000+0  13202-2 0  9991,2 45580  53.1566  41.3747 0002642 120.6726 239.4537 15.34765443338553
STARLINK-1335,45581,53.155,0.0003983,15.36073973,455.0096318428932,460.4550853739611,1 45581U 20025BC  26152.12760136  .00056647  00000+0  15878-2 0  9992,2 45581  53.1550  46.2276 0003983 111.2418 248.9011 15.36073973338320
STARLINK-1337,45582,53.0459,0.0005068,15.73868274,344.4448368174644,351.26230085803763,1 45582U 20025BD  26155.89614678  .00082001  00000+0  56611-3 0  9993,2 45582  53.0459 352.7995 0005068 101.8972 258.2614 15.73868274339384
STARLINK-1347,45586,53.0393,0.0005327,15.68194195,360.4763251398572,367.6594702378552,1 45586U 20025BH  26155.74770714  .00005029  00000+0  49237-4 0  9997,2 45586  53.0393 323.8873 0005327 161.2115 198.9099 15.68194195339774
STARLINK-1364,45589,53.0431,9.81e-05,15.68736739,361.8520328861887,363.17454847322006,1 45589U 20025BL  26153.84576815  .00052619  00000+0  45420-3 0  9991,2 45589  53.0431   9.9937 0000981 132.7180 227.3919 15.68736739338963
STARLINK-1365,45590,53.0469,0.0003728,15.57919136,391.1557803483083,396.2048473375098,1 45590U 20025BM  26152.13943931  .00094588  00000+0  12350-2 0  9997,2 45590  53.0469  52.0460 0003728  77.7769 282.3659 15.57919136338244
STARLINK-1443,45660,53.1603,0.0001465,15.3299934,465.86667286065585,467.8722597552851,1 45660U 20035D   26155.92297747  .00199472  00000+0  60200-2 0  9998,2 45660  53.1603  20.2480 0001465  73.2405 286.8758 15.32999340332102
STARLINK-1446,45663,53.0234,0.0002768,15.47326647,422.6672643408665,426.4332320014537,1 45663U 20035G   26154.65502605  .00038115  00000+0  73917-3 0  9998,2 45663  53.0234 309.7488 0002768 168.4806 191.6265 15.47326647332966
STARLINK-1448,45665,53.0445,0.0005066,15.67857917,361.6158302509375,368.4480090003017,1 45665U 20035J   26155.90990203  .00060952  00000+0  54371-3 0  9991,2 45665  53.0445 347.1411 0005066  91.5556 268.6040 15.67857917332547
STARLINK-1451,45668,53.0519,0.0002706,15.13854132,522.5916687282797,526.3273539602187,1 45668U 20035M   26152.02955725  .00024612  00000+0  13573-2 0  9995,2 45668  53.0519  48.6221 0002706  94.0849 266.0453 15.13854132331350
STARLINK-1452,45669,53.0257,0.0002739,15.5827021,390.80863891715853,394.5176832453999,1 45669U 20035N   26155.64476225  .00097105  00000+0  12508-2 0  9994,2 45669  53.0257 323.3517 0002739 301.5490  58.5253 15.58270210332862
STARLINK-1453,45670,53.0408,0.0001355,15.68272991,362.92852162303006,364.7555979482322,1 45670U 20035P   26155.75115284  .00065706  00000+0  57585-3 0  9990,2 45670  53.0408 308.2254 0001355 254.0750 106.0117 15.68272991332975
STARLINK-1454,45671,53.0436,0.000217,15.66318683,367.98468122735085,370.91313351114877,1 45671U 20035Q   26155.72023273  .00053552  00000+0  50968-3 0  9998,2 45671  53.0436 349.2680 0002170  48.8836 311.2366 15.66318683332495
STARLINK-1456,45673,53.0428,0.0004464,15.65240346,369.53411068000514,375.5611219054308,1 45673U 20035S   26155.74959964  .00052587  00000+0  52252-3 0  9992,2 45673  53.0428 343.6825 0004464 143.7896 216.3421 15.65240346332593
STARLINK-1458,45675,53.0468,0.0002715,15.56070467,397.20269363126135,400.882702207231,1 45675U 20035U   26154.00002315  .00139378  00000+0  19355-2 0  9991,2 45675  53.0468   6.5615 0002715  77.2102 159.3157 15.56070467  5896
STARLINK-1460,45676,53.1576,0.0003606,15.34588494,459.67644867500894,464.6096586497115,1 45676U 20035V   26153.82390222  .00047049  00000+0  13864-2 0  9990,2 45676  53.1576  28.6736 0003606 141.5857 218.5403 15.34588494331769
STARLINK-1392,45677,53.1531,0.0002873,15.37596719,451.2557343916151,455.1810311945683,1 45677U 20035W   26151.96769812  .00056865  00000+0  15177-2 0  9994,2 45677  53.1531  36.1503 0002873 134.7965 225.3273 15.37596719331534
STARLINK-1394,45679,53.0417,0.0004579,15.64968388,370.2381800215353,376.42117320397665,1 45679U 20035Y   26155.75204617  .00050916  00000+0  51168-3 0  9996,2 45679  53.0417 333.9443 0004579 156.5447 203.5777 15.64968388332725
STARLINK-1402,45685,53.0417,0.000522,15.57494999,391.37412844545634,398.4451891572444,1 45685U 20035AE  26155.74400863  .00051899  00000+0  69497-3 0  9998,2 45685  53.0417 324.6363 0005220 178.8204 181.2820 15.57494999332862
STARLINK-1404,45686,53.1576,0.0003445,15.44206953,431.3625999502219,436.05596203782625,1 45686U 20035AF  26155.74340194  .00061382  00000+0  13149-2 0  9999,2 45686  53.1576   0.1844 0003445 164.1911 195.9204 15.44206953332371
STARLINK-1413,45689,53.1573,0.0001564,15.34710308,460.7113316525774,462.8508580326443,1 45689U 20035AJ  26155.75133393  .00040684  00000+0  11969-2 0  9994,2 45689  53.1573   4.3045 0001564 178.2986 181.8023 15.34710308332239
STARLINK-1417,45693,53.0509,0.0005661,15.16553485,512.3634171401045,520.1692606003735,1 45693U 20035AN  26153.78787421  .00026958  00000+0  13754-2 0  9999,2 45693  53.0509  27.3923 0005661 115.6809 244.4770 15.16553485331799
STARLINK-1420,45695,53.0461,0.0003956,15.6781036,362.50062947329934,367.8359326116606,1 45695U 20035AQ  26155.64417959  .00057531  00000+0  51480-3 0  9994,2 45695  53.0461 317.7194 0003956 118.9382 241.2031 15.67810360332948
